DUCHIFAT-3              
1 44854U 19089C   20144.38309042  .00000256  00000-0  27122-4 0  9993
2 44854  36.9666 246.5095 0008164 230.4405 129.5641 14.99053461 24535
ORBITAL FACTORY 2 (OF-2)
1 45113U 19071C   20142.95744466  .00001309  00000-0  51655-4 0  9995
2 45113  51.6431 131.5338 0012871 324.3924  35.6198 15.33256502 17064
